satname,norad_id,inclination_deg,eccentricity,mean_motion_rev_per_day,perigee_km,apogee_km,l1,l2
STARLINK-1522,46027,53.0532,0.0001404,15.06407524,546.2161823579854,548.1608137578414,1 46027U 20055A   26036.84921752  .00003151  00000+0  23028-3 0  9993,2 46027  53.0532 269.5553 0001404  88.5818 271.5331 15.06407524304082
STARLINK-1523,46028,53.0551,0.0001334,15.06402779,546.2792003551904,548.1268810780521,1 46028U 20055B   26036.79761443  .00001621  00000+0  12769-3 0  9997,2 46028  53.0551 269.7878 0001334  92.1862 267.9279 15.06402779304096
STARLINK-1526,46029,53.0529,0.0002713,15.06299259,545.6414009676555,549.3992626358913,1 46029U 20055C   26036.85664015  .00047808  00000+0  32154-2 0  9998,2 46029  53.0529 269.5211 0002713  89.4502 270.6797 15.06299259304096
STARLINK-1555,46032,53.0539,0.0001302,15.06392969,546.3314238365083,548.134790212378,1 46032U 20055F   26036.84186015  .00016764  00000+0  11419-2 0  9998,2 46032  53.0539 269.5877 0001302 117.6034 242.5087 15.06392969304098
STARLINK-1556,46033,53.0531,0.000143,15.06392254,546.244970175705,548.2256266530512,1 46033U 20055G   26036.62438297  .00004449  00000+0  31746-3 0  9990,2 46033  53.0531 270.5631 0001430  89.6954 270.4199 15.06392254304037
STARLINK-1557,46034,53.0525,0.000222,15.06376432,545.7463479899307,548.8212348213146,1 46034U 20055H   26036.03095392  .00000355  00000+0  42770-4 0  9993,2 46034  53.0525 273.2209 0002220 118.1276 241.9938 15.06376432303948
STARLINK-1558,46035,53.0532,0.0001537,15.06412269,546.1095351816957,548.2383757694088,1 46035U 20055J   26036.63543842  .00003702  00000+0  26720-3 0  9993,2 46035  53.0532 270.5132 0001537  87.2648 272.8517 15.06412269304060
STARLINK-1560,46036,53.055,0.0001067,15.06393742,546.4918011357277,547.9696746109894,1 46036U 20055K   26036.08992331 -.00000777  00000+0 -33262-4 0  9995,2 46036  53.0550 272.9634 0001067  83.1262 276.9848 15.06393742303985
STARLINK-1567,46038,53.0545,2.66e-05,15.06378993,547.0917261316617,547.4601581001816,1 46038U 20055M   26036.03464336 -.00002786  00000+0 -16832-3 0  9996,2 46038  53.0545 273.2108 0000266 238.1473 121.9490 15.06378993303968
STARLINK-1569,46039,53.0534,0.0001573,15.06404429,546.1086285314877,548.2873389173674,1 46039U 20055N   26036.63912579 -.00001915  00000+0 -10965-3 0  9994,2 46039  53.0534 270.4982 0001573  85.8463 274.2706 15.06404429304051
STARLINK-1582,46043,53.0544,0.0001307,15.06437627,546.1911110185902,548.0013669872651,1 46043U 20055S   26036.84552669 -.00007572  00000+0 -48949-3 0  9990,2 46043  53.0544 269.5681 0001307 107.9678 252.1453 15.06437627304084
STARLINK-1591,46045,53.0544,0.0001774,15.06387257,546.0220499106008,548.4791774359328,1 46045U 20055U   26036.80499728 -.00001895  00000+0 -10840-3 0  9995,2 46045  53.0544 269.7489 0001774 105.3083 254.8102 15.06387257304065
STARLINK-1524,46047,53.0523,0.0001426,15.06405336,546.207651542798,548.182756287355,1 46047U 20055W   26036.75798774 -.00000519  00000+0 -15913-4 0  9993,2 46047  53.0523 259.9638 0001426  90.4400 269.6752 15.06405336304213
STARLINK-1527,46048,53.0549,0.0001546,15.06382177,546.1955160727248,548.3368507370333,1 46048U 20055X   26036.75431088  .00003662  00000+0  26476-3 0  9991,2 46048  53.0549 259.9813 0001546  92.6380 267.4786 15.06382177304198
STARLINK-1540,46051,53.0543,0.0001188,15.06392397,546.4121259592685,548.0575943132371,1 46051U 20055AA  26036.85382794  .00000684  00000+0  64804-4 0  9994,2 46051  53.0543 259.5324 0001188  83.1489 276.9635 15.06392397304245
STARLINK-1541,46052,53.0534,0.0001249,15.06392819,546.3685879726663,548.0985455402424,1 46052U 20055AB  26036.77274590  .00002283  00000+0  17213-3 0  9998,2 46052  53.0534 259.8986 0001249  91.6013 268.5119 15.06392819304195
STARLINK-1543,46053,53.0548,0.000158,15.06384139,546.1659572925419,548.3543827982767,1 46053U 20055AC  26036.84277481  .00002196  00000+0  16636-3 0  9990,2 46053  53.0548 259.5840 0001580  95.2478 264.8691 15.06384139304235
STARLINK-1548,46054,53.0541,0.0001156,15.06384924,546.4571884575644,548.0583397270229,1 46054U 20055AD  26036.85015696 -.00000017  00000+0  17744-4 0  9993,2 46054  53.0541 259.5495 0001156  79.8484 280.2635 15.06384924304231
STARLINK-1554,46055,53.0526,0.0001406,15.06410641,546.2052455759722,548.1526444197061,1 46055U 20055AE  26036.76904439  .00002410  00000+0  18058-3 0  9992,2 46055  53.0526 259.9141 0001406  83.5734 276.5415 15.06410641304224
STARLINK-1564,46058,53.0542,0.0001085,15.06391517,546.4861540940501,547.9889603729698,1 46058U 20055AH  26036.84651048 -.00001670  00000+0 -93242-4 0  9997,2 46058  53.0542 260.0305 0001085 100.1416 259.9695 15.06391517304221
STARLINK-1570,46059,53.0545,0.0001549,15.06400575,546.1370594280079,548.2825318652995,1 46059U 20055AJ  26036.80959057  .00000520  00000+0  53787-4 0  9996,2 46059  53.0545 259.7326 0001549  88.6014 271.5153 15.06400575304181
STARLINK-1572,46060,53.0531,0.0001314,15.06401415,546.2972309398083,548.1172114011306,1 46060U 20055AK  26036.80591337  .00001141  00000+0  95471-4 0  9997,2 46060  53.0531 259.7486 0001314  98.4150 261.6988 15.06401415304196
STARLINK-1573,46061,53.0532,0.000137,15.06411762,546.2267415230936,548.1242771506522,1 46061U 20055AL  26036.80221898  .00005829  00000+0  40976-3 0  9996,2 46061  53.0532 259.8023 0001370  96.3870 263.7275 15.06411762304226
STARLINK-1577,46063,53.0577,0.00024,15.06287065,545.8955423433963,549.2198758037521,1 46063U 20055AN  26036.76169137  .00027085  00000+0  18358-2 0  9996,2 46063  53.0577 259.9466 0002400  83.0487 277.0775 15.06287065304210
STARLINK-1583,46064,53.0569,0.0001671,15.06398351,546.0593853018418,548.3738384789367,1 46064U 20055AP  26036.79486243 -.00000699  00000+0 -27996-4 0  9994,2 46064  53.0569 259.7995 0001671  94.6119 265.5061 15.06398351304228
STARLINK-1525,46066,53.0551,0.0001221,15.06390703,546.3944635127564,548.0856405888671,1 46066U 20055AR  26036.79300948  .00001523  00000+0  12111-3 0  9990,2 46066  53.0551 239.8064 0001221  91.6395 268.4734 15.06390703304492
STARLINK-1536,46070,53.0557,0.0002911,15.0644722,545.0509123819256,549.0827660571194,1 46070U 20055AV  26036.77087326 -.00013273  00000+0 -87256-3 0  9994,2 46070  53.0557 239.9065 0002911  84.1079 276.0242 15.06447220304506
STARLINK-1542,46073,53.055,8.14e-05,15.06393509,546.6677269978454,547.7951769818292,1 46073U 20055AY  26036.76353656 -.00001074  00000+0 -53244-4 0  9995,2 46073  53.0550 239.9384 0000814 102.0000 258.1080 15.06393509304499
